{
 "generated_at": "2026-06-17T09:51:32Z",
 "sources": [
  {
   "name": "CelesTrak",
   "url": "https://celestrak.org/NORAD/elements/",
   "license": "frei verfügbar; Attribution. Ursprünglich USSPACECOM/Space-Track."
  },
  {
   "name": "GCAT (J. McDowell, planet4589.org)",
   "url": "https://planet4589.org/space/gcat/",
   "license": "CC-BY 4.0"
  }
 ],
 "satellites": [
  {
   "norad": 43010,
   "name": "FENGYUN 3D",
   "intl": "2017-072A",
   "group": "weather",
   "gcat": {
    "class": "C",
    "category": "MET",
    "owner": "NSMC",
    "state": "CN"
   },
   "omm": {
    "OBJECT_NAME": "FENGYUN 3D",
    "OBJECT_ID": "2017-072A",
    "EPOCH": "2026-06-17T05:13:40.920672",
    "MEAN_MOTION": 14.19739314,
    "ECCENTRICITY": 0.0002577,
    "INCLINATION": 99.0122,
    "RA_OF_ASC_NODE": 142.641,
    "ARG_OF_PERICENTER": 62.8384,
    "MEAN_ANOMALY": 297.3054,
    "EPHEMERIS_TYPE": 0,
    "CLASSIFICATION_TYPE": "U",
    "NORAD_CAT_ID": 43010,
    "ELEMENT_SET_NO": 999,
    "REV_AT_EPOCH": 44499,
    "BSTAR": 0.000081928,
    "MEAN_MOTION_DOT": 0.00000127,
    "MEAN_MOTION_DDOT": 0
   }
  },
  {
   "norad": 49008,
   "name": "FENGYUN 3E",
   "intl": "2021-062A",
   "group": "weather",
   "gcat": {
    "class": "C",
    "category": "MET",
    "owner": "NSMC",
    "state": "CN"
   },
   "omm": {
    "OBJECT_NAME": "FENGYUN 3E",
    "OBJECT_ID": "2021-062A",
    "EPOCH": "2026-06-17T04:50:26.549952",
    "MEAN_MOTION": 14.19905446,
    "ECCENTRICITY": 0.000284,
    "INCLINATION": 98.7484,
    "RA_OF_ASC_NODE": 171.6096,
    "ARG_OF_PERICENTER": 86.5881,
    "MEAN_ANOMALY": 273.562,
    "EPHEMERIS_TYPE": 0,
    "CLASSIFICATION_TYPE": "U",
    "NORAD_CAT_ID": 49008,
    "ELEMENT_SET_NO": 999,
    "REV_AT_EPOCH": 25658,
    "BSTAR": 0.00019629,
    "MEAN_MOTION_DOT": 0.00000373,
    "MEAN_MOTION_DDOT": 0
   }
  },
  {
   "norad": 57490,
   "name": "FENGYUN 3F",
   "intl": "2023-111A",
   "group": "weather",
   "gcat": {
    "class": "C",
    "category": "MET",
    "owner": "NSMC",
    "state": "CN"
   },
   "omm": {
    "OBJECT_NAME": "FENGYUN 3F",
    "OBJECT_ID": "2023-111A",
    "EPOCH": "2026-06-17T04:27:17.084160",
    "MEAN_MOTION": 14.19939099,
    "ECCENTRICITY": 0.0001592,
    "INCLINATION": 98.6836,
    "RA_OF_ASC_NODE": 238.1943,
    "ARG_OF_PERICENTER": 93.5463,
    "MEAN_ANOMALY": 266.5896,
    "EPHEMERIS_TYPE": 0,
    "CLASSIFICATION_TYPE": "U",
    "NORAD_CAT_ID": 57490,
    "ELEMENT_SET_NO": 999,
    "REV_AT_EPOCH": 14886,
    "BSTAR": 0.000035705,
    "MEAN_MOTION_DOT": 3.2e-7,
    "MEAN_MOTION_DDOT": 0
   }
  },
  {
   "norad": 56232,
   "name": "FENGYUN 3G",
   "intl": "2023-055A",
   "group": "weather",
   "gcat": {
    "class": "C",
    "category": "MET",
    "owner": "NSMC",
    "state": "CN"
   },
   "omm": {
    "OBJECT_NAME": "FENGYUN 3G",
    "OBJECT_ID": "2023-055A",
    "EPOCH": "2026-06-16T23:27:58.838112",
    "MEAN_MOTION": 15.52621426,
    "ECCENTRICITY": 0.0006984,
    "INCLINATION": 49.9934,
    "RA_OF_ASC_NODE": 347.1002,
    "ARG_OF_PERICENTER": 295.4327,
    "MEAN_ANOMALY": 64.5917,
    "EPHEMERIS_TYPE": 0,
    "CLASSIFICATION_TYPE": "U",
    "NORAD_CAT_ID": 56232,
    "ELEMENT_SET_NO": 999,
    "REV_AT_EPOCH": 17997,
    "BSTAR": 0.00034209,
    "MEAN_MOTION_DOT": 0.00021079,
    "MEAN_MOTION_DDOT": 0
   }
  },
  {
   "norad": 65815,
   "name": "FENGYUN 3H",
   "intl": "2025-219A",
   "group": "weather",
   "gcat": {
    "class": "C",
    "category": "MET",
    "owner": "NSMC",
    "state": "CN"
   },
   "omm": {
    "OBJECT_NAME": "FENGYUN 3H",
    "OBJECT_ID": "2025-219A",
    "EPOCH": "2026-06-17T02:40:35.583744",
    "MEAN_MOTION": 14.19920469,
    "ECCENTRICITY": 0.0001598,
    "INCLINATION": 98.6768,
    "RA_OF_ASC_NODE": 108.8821,
    "ARG_OF_PERICENTER": 76.9295,
    "MEAN_ANOMALY": 283.206,
    "EPHEMERIS_TYPE": 0,
    "CLASSIFICATION_TYPE": "U",
    "NORAD_CAT_ID": 65815,
    "ELEMENT_SET_NO": 999,
    "REV_AT_EPOCH": 3737,
    "BSTAR": 0.000038228,
    "MEAN_MOTION_DOT": 3.8e-7,
    "MEAN_MOTION_DDOT": 0
   }
  },
  {
   "norad": 41882,
   "name": "FENGYUN 4A",
   "intl": "2016-077A",
   "group": "weather",
   "gcat": {
    "class": "C",
    "category": "MET",
    "owner": "NSMC",
    "state": "CN"
   },
   "omm": {
    "OBJECT_NAME": "FENGYUN 4A",
    "OBJECT_ID": "2016-077A",
    "EPOCH": "2026-06-16T18:44:07.984608",
    "MEAN_MOTION": 1.00268694,
    "ECCENTRICITY": 0.0008712,
    "INCLINATION": 2.3211,
    "RA_OF_ASC_NODE": 80.2786,
    "ARG_OF_PERICENTER": 153.4047,
    "MEAN_ANOMALY": 76.1551,
    "EPHEMERIS_TYPE": 0,
    "CLASSIFICATION_TYPE": "U",
    "NORAD_CAT_ID": 41882,
    "ELEMENT_SET_NO": 999,
    "REV_AT_EPOCH": 3492,
    "BSTAR": 0,
    "MEAN_MOTION_DOT": -0.00000361,
    "MEAN_MOTION_DDOT": 0
   }
  },
  {
   "norad": 42920,
   "name": "FORMOSAT-5",
   "intl": "2017-049A",
   "group": "resource",
   "gcat": {
    "class": "C",
    "category": "IMG/SCI",
    "owner": "NSPO",
    "state": "TW"
   },
   "omm": {
    "OBJECT_NAME": "FORMOSAT-5",
    "OBJECT_ID": "2017-049A",
    "EPOCH": "2026-06-17T02:55:29.246592",
    "MEAN_MOTION": 14.50898845,
    "ECCENTRICITY": 0.0012681,
    "INCLINATION": 98.2254,
    "RA_OF_ASC_NODE": 243.433,
    "ARG_OF_PERICENTER": 84.5511,
    "MEAN_ANOMALY": 275.713,
    "EPHEMERIS_TYPE": 0,
    "CLASSIFICATION_TYPE": "U",
    "NORAD_CAT_ID": 42920,
    "ELEMENT_SET_NO": 999,
    "REV_AT_EPOCH": 46666,
    "BSTAR": 0.000042357,
    "MEAN_MOTION_DOT": 0.00000124,
    "MEAN_MOTION_DDOT": 0
   }
  },
  {
   "norad": 39150,
   "name": "GAOFEN-1",
   "intl": "2013-018A",
   "group": "resource",
   "gcat": {
    "class": "C",
    "category": "IMG",
    "owner": "CNSAS",
    "state": "CN"
   },
   "omm": {
    "OBJECT_NAME": "GAOFEN-1",
    "OBJECT_ID": "2013-018A",
    "EPOCH": "2026-06-17T04:45:53.961408",
    "MEAN_MOTION": 14.76535697,
    "ECCENTRICITY": 0.0015681,
    "INCLINATION": 97.9098,
    "RA_OF_ASC_NODE": 240.2659,
    "ARG_OF_PERICENTER": 266.4093,
    "MEAN_ANOMALY": 93.5324,
    "EPHEMERIS_TYPE": 0,
    "CLASSIFICATION_TYPE": "U",
    "NORAD_CAT_ID": 39150,
    "ELEMENT_SET_NO": 999,
    "REV_AT_EPOCH": 70824,
    "BSTAR": 0.000014241,
    "MEAN_MOTION_DOT": 4.8e-7,
    "MEAN_MOTION_DDOT": 0
   }
  },
  {
   "norad": 43259,
   "name": "GAOFEN-1 02",
   "intl": "2018-031A",
   "group": "resource",
   "gcat": {
    "class": "C",
    "category": "IMG",
    "owner": "CNSAS",
    "state": "CN"
   },
   "omm": {
    "OBJECT_NAME": "GAOFEN-1 02",
    "OBJECT_ID": "2018-031A",
    "EPOCH": "2026-06-17T03:54:39.139200",
    "MEAN_MOTION": 14.76456799,
    "ECCENTRICITY": 0.0003826,
    "INCLINATION": 98.0529,
    "RA_OF_ASC_NODE": 230.6901,
    "ARG_OF_PERICENTER": 34.2731,
    "MEAN_ANOMALY": 325.8725,
    "EPHEMERIS_TYPE": 0,
    "CLASSIFICATION_TYPE": "U",
    "NORAD_CAT_ID": 43259,
    "ELEMENT_SET_NO": 999,
    "REV_AT_EPOCH": 44269,
    "BSTAR": 0.000084751,
    "MEAN_MOTION_DOT": 0.00000538,
    "MEAN_MOTION_DDOT": 0
   }
  },
  {
   "norad": 43260,
   "name": "GAOFEN-1 03",
   "intl": "2018-031B",
   "group": "resource",
   "gcat": {
    "class": "C",
    "category": "IMG",
    "owner": "CNSAS",
    "state": "CN"
   },
   "omm": {
    "OBJECT_NAME": "GAOFEN-1 03",
    "OBJECT_ID": "2018-031B",
    "EPOCH": "2026-06-17T05:00:46.607328",
    "MEAN_MOTION": 14.76469156,
    "ECCENTRICITY": 0.0003736,
    "INCLINATION": 98.0517,
    "RA_OF_ASC_NODE": 230.5944,
    "ARG_OF_PERICENTER": 79.0934,
    "MEAN_ANOMALY": 281.0695,
    "EPHEMERIS_TYPE": 0,
    "CLASSIFICATION_TYPE": "U",
    "NORAD_CAT_ID": 43260,
    "ELEMENT_SET_NO": 999,
    "REV_AT_EPOCH": 44269,
    "BSTAR": 0.000091652,
    "MEAN_MOTION_DOT": 0.00000586,
    "MEAN_MOTION_DDOT": 0
   }
  }
 ]
}
